stk.v.4.3 

BEGIN Ephemeris 
 
NumberOfEphemerisPoints		146 
ScenarioEpoch	    3 Sep 2020 20:23:31.837054789 
InterpolationMethod		Lagrange 
InterpolationOrder		5 
CentralBody				Earth 
CoordinateSystem			TEME 
CoordinateSystemEpoch	  3 Sep 2020 20:23:31.837054789 
DistanceUnit			Kilometers 
 
EphemerisTimePosVel 
 
       0.00000000   -6562.02028891    2861.69187933       0.04374949 -0.178485064 -0.432653658  7.448775400
 END Ephemeris 
